{"type": "FeatureCollection", "features": [ {"type": "Feature", "properties": {"norad_id": 32384, "name": "GPS BIIRM-5 (PRN 29)", "group": "gps-ops", "lat": -11.499421025849198, "lon": 109.41855241338186, "alt_km": 20109.647192509674, "timestamp": "2025-12-21T07:34:34.777076+00:00", "meta": {"OBJECT_NAME": "GPS BIIRM-5 (PRN 29)", "OBJECT_ID": "2007-062A", "EPOCH": "2025-12-19T04:08:10.010976", "MEAN_MOTION": 2.00577702, "ECCENTRICITY": 0.00322663, "INCLINATION": 55.1765, "RA_OF_ASC_NODE": 281.388, "ARG_OF_PERICENTER": 162.2119, "MEAN_ANOMALY": 283.9132, "EPHEMERIS_TYPE": 0, "CLASSIFICATION_TYPE": "U", "NORAD_CAT_ID": 32384, "ELEMENT_SET_NO": 999, "REV_AT_EPOCH": 13190, "BSTAR": 0, "MEAN_MOTION_DOT": -3.8e-07, "MEAN_MOTION_DDOT": 0}, "tle": {"line1": "1 32384U 07062A   25353.17233809 -.00000038  00000+0  00000+0 0  9996", "line2": "2 32384  55.1765 281.3880 0032266 162.2119 283.9132  2.00577702131904"}}, "geometry": {"type": "Point", "coordinates": [109.41855241338186, -11.499421025849198]}}, {"type": "Feature", "properties": {"norad_id": 32711, "name": "GPS BIIRM-6 (PRN 07)", "group": "gps-ops", "lat": 46.94277013465305, "lon": -72.8639914836073, "alt_km": 20508.425333303087, "timestamp": "2025-12-21T07:34:34.777086+00:00", "meta": {"OBJECT_NAME": "GPS BIIRM-6 (PRN 07)", "OBJECT_ID": "2008-012A", "EPOCH": "2025-12-19T15:41:26.858112", "MEAN_MOTION": 2.00565937, "ECCENTRICITY": 0.0202735, "INCLINATION": 54.4779, "RA_OF_ASC_NODE": 157.0969, "ARG_OF_PERICENTER": 245.0276, "MEAN_ANOMALY": 112.8468, "EPHEMERIS_TYPE": 0, "CLASSIFICATION_TYPE": "U", "NORAD_CAT_ID": 32711, "ELEMENT_SET_NO": 999, "REV_AT_EPOCH": 13015, "BSTAR": 0, "MEAN_MOTION_DOT": 6.7e-07, "MEAN_MOTION_DDOT": 0}, "tle": {"line1": "1 32711U 08012A   25353.65378308  .00000067  00000+0  00000+0 0  9994", "line2": "2 32711  54.4779 157.0969 0202735 245.0276 112.8468  2.00565937130151"}}, "geometry": {"type": "Point", "coordinates": [-72.8639914836073, 46.94277013465305]}}, {"type": "Feature", "properties": {"norad_id": 35752, "name": "GPS BIIRM-8 (PRN 05)", "group": "gps-ops", "lat": 33.5463837510238, "lon": -172.0012775088162, "alt_km": 20101.648875788112, "timestamp": "2025-12-21T07:34:34.777097+00:00", "meta": {"OBJECT_NAME": "GPS BIIRM-8 (PRN 05)", "OBJECT_ID": "2009-043A", "EPOCH": "2025-12-20T02:09:52.509312", "MEAN_MOTION": 2.00565329, "ECCENTRICITY": 0.00516467, "INCLINATION": 56.096, "RA_OF_ASC_NODE": 34.4932, "ARG_OF_PERICENTER": 81.7821, "MEAN_ANOMALY": 251.1308, "EPHEMERIS_TYPE": 0, "CLASSIFICATION_TYPE": "U", "NORAD_CAT_ID": 35752, "ELEMENT_SET_NO": 999, "REV_AT_EPOCH": 11976, "BSTAR": 0, "MEAN_MOTION_DOT": -6.1e-07, "MEAN_MOTION_DDOT": 0}, "tle": {"line1": "1 35752U 09043A   25354.09019108 -.00000061  00000+0  00000+0 0  9991", "line2": "2 35752  56.0960  34.4932 0051646  81.7821 251.1308  2.00565329119760"}}, "geometry": {"type": "Point", "coordinates": [-172.0012775088162, 33.5463837510238]}}, {"type": "Feature", "properties": {"norad_id": 36585, "name": "GPS BIIF-1  (PRN 25)", "group": "gps-ops", "lat": -51.833609667947435, "lon": 101.91904071543634, "alt_km": 20519.15724402178, "timestamp": "2025-12-21T07:34:34.777107+00:00", "meta": {"OBJECT_NAME": "GPS BIIF-1  (PRN 25)", "OBJECT_ID": "2010-022A", "EPOCH": "2025-12-20T02:58:58.243008", "MEAN_MOTION": 2.00553637, "ECCENTRICITY": 0.01264155, "INCLINATION": 54.299, "RA_OF_ASC_NODE": 215.7761, "ARG_OF_PERICENTER": 65.1663, "MEAN_ANOMALY": 50.4936, "EPHEMERIS_TYPE": 0, "CLASSIFICATION_TYPE": "U", "NORAD_CAT_ID": 36585, "ELEMENT_SET_NO": 999, "REV_AT_EPOCH": 11400, "BSTAR": 0, "MEAN_MOTION_DOT": 8e-07, "MEAN_MOTION_DDOT": 0}, "tle": {"line1": "1 36585U 10022A   25354.12428522  .00000080  00000+0  00000+0 0  9993", "line2": "2 36585  54.2990 215.7761 0126415  65.1663  50.4936  2.00553637114007"}}, "geometry": {"type": "Point", "coordinates": [101.91904071543634, -51.833609667947435]}}, {"type": "Feature", "properties": {"norad_id": 38833, "name": "GPS BIIF-3  (PRN 24)", "group": "gps-ops", "lat": -6.575219940108356, "lon": 145.9886490473484, "alt_km": 20033.853473864863, "timestamp": "2025-12-21T07:34:34.777117+00:00", "meta": {"OBJECT_NAME": "GPS BIIF-3  (PRN 24)", "OBJECT_ID": "2012-053A", "EPOCH": "2025-12-19T19:56:51.793728", "MEAN_MOTION": 2.0056508, "ECCENTRICITY": 0.01760073, "INCLINATION": 53.5591, "RA_OF_ASC_NODE": 150.9483, "ARG_OF_PERICENTER": 64.0988, "MEAN_ANOMALY": 297.6852, "EPHEMERIS_TYPE": 0, "CLASSIFICATION_TYPE": "U", "NORAD_CAT_ID": 38833, "ELEMENT_SET_NO": 999, "REV_AT_EPOCH": 9584, "BSTAR": 0, "MEAN_MOTION_DOT": 5.6e-07, "MEAN_MOTION_DDOT": 0}, "tle": {"line1": "1 38833U 12053A   25353.83115502  .00000056  00000+0  00000+0 0  9998", "line2": "2 38833  53.5591 150.9483 0176007  64.0988 297.6852  2.00565080 95842"}}, "geometry": {"type": "Point", "coordinates": [145.9886490473484, -6.575219940108356]}}, {"type": "Feature", "properties": {"norad_id": 39166, "name": "GPS BIIF-4  (PRN 27)", "group": "gps-ops", "lat": 54.6023182116808, "lon": 10.218624270653217, "alt_km": 19907.81676223331, "timestamp": "2025-12-21T07:34:34.777128+00:00", "meta": {"OBJECT_NAME": "GPS BIIF-4  (PRN 27)", "OBJECT_ID": "2013-023A", "EPOCH": "2025-12-19T04:43:12.887616", "MEAN_MOTION": 2.00564719, "ECCENTRICITY": 0.0138305, "INCLINATION": 54.6464, "RA_OF_ASC_NODE": 276.3057, "ARG_OF_PERICENTER": 48.6894, "MEAN_ANOMALY": 312.5202, "EPHEMERIS_TYPE": 0, "CLASSIFICATION_TYPE": "U", "NORAD_CAT_ID": 39166, "ELEMENT_SET_NO": 999, "REV_AT_EPOCH": 9227, "BSTAR": 0, "MEAN_MOTION_DOT": -2.9e-07, "MEAN_MOTION_DDOT": 0}, "tle": {"line1": "1 39166U 13023A   25353.19667694 -.00000029  00000+0  00000+0 0  9990", "line2": "2 39166  54.6464 276.3057 0138305  48.6894 312.5202  2.00564719 92274"}}, "geometry": {"type": "Point", "coordinates": [10.218624270653217, 54.6023182116808]}}, {"type": "Feature", "properties": {"norad_id": 39533, "name": "GPS BIIF-5  (PRN 30)", "group": "gps-ops", "lat": 53.486537953761136, "lon": -108.05511804211343, "alt_km": 20320.75660261217, "timestamp": "2025-12-21T07:34:34.777138+00:00", "meta": {"OBJECT_NAME": "GPS BIIF-5  (PRN 30)", "OBJECT_ID": "2014-008A", "EPOCH": "2025-12-20T04:30:10.868256", "MEAN_MOTION": 2.00559606, "ECCENTRICITY": 0.00799985, "INCLINATION": 53.6333, "RA_OF_ASC_NODE": 156.6204, "ARG_OF_PERICENTER": 226.3975, "MEAN_ANOMALY": 132.9264, "EPHEMERIS_TYPE": 0, "CLASSIFICATION_TYPE": "U", "NORAD_CAT_ID": 39533, "ELEMENT_SET_NO": 999, "REV_AT_EPOCH": 8609, "BSTAR": 0, "MEAN_MOTION_DOT": 6.4e-07, "MEAN_MOTION_DDOT": 0}, "tle": {"line1": "1 39533U 14008A   25354.18762579  .00000064  00000+0  00000+0 0  9998", "line2": "2 39533  53.6333 156.6204 0079998 226.3975 132.9264  2.00559606 86091"}}, "geometry": {"type": "Point", "coordinates": [-108.05511804211343, 53.486537953761136]}}, {"type": "Feature", "properties": {"norad_id": 39741, "name": "GPS BIIF-6  (PRN 06)", "group": "gps-ops", "lat": -51.1750948534409, "lon": -146.44567675473303, "alt_km": 20151.928825607763, "timestamp": "2025-12-21T07:34:34.777148+00:00", "meta": {"OBJECT_NAME": "GPS BIIF-6  (PRN 06)", "OBJECT_ID": "2014-026A", "EPOCH": "2025-12-18T23:24:45.525888", "MEAN_MOTION": 2.00561009, "ECCENTRICITY": 0.00393411, "INCLINATION": 56.5812, "RA_OF_ASC_NODE": 338.5339, "ARG_OF_PERICENTER": 319.0443, "MEAN_ANOMALY": 40.6665, "EPHEMERIS_TYPE": 0, "CLASSIFICATION_TYPE": "U", "NORAD_CAT_ID": 39741, "ELEMENT_SET_NO": 999, "REV_AT_EPOCH": 8492, "BSTAR": 0, "MEAN_MOTION_DOT": -8.1e-07, "MEAN_MOTION_DDOT": 0}, "tle": {"line1": "1 39741U 14026A   25352.97552692 -.00000081  00000+0  00000+0 0  9997", "line2": "2 39741  56.5812 338.5339 0039341 319.0443  40.6665  2.00561009 84924"}}, "geometry": {"type": "Point", "coordinates": [-146.44567675473303, -51.1750948534409]}}, {"type": "Feature", "properties": {"norad_id": 40105, "name": "GPS BIIF-7  (PRN 09)", "group": "gps-ops", "lat": -6.2331495867216, "lon": -80.09693455476972, "alt_km": 20149.08282640307, "timestamp": "2025-12-21T07:34:34.777158+00:00", "meta": {"OBJECT_NAME": "GPS BIIF-7  (PRN 09)", "OBJECT_ID": "2014-045A", "EPOCH": "2025-12-18T01:34:21.644256", "MEAN_MOTION": 2.00572958, "ECCENTRICITY": 0.00325491, "INCLINATION": 55.2322, "RA_OF_ASC_NODE": 95.6864, "ARG_OF_PERICENTER": 120.0469, "MEAN_ANOMALY": 240.2601, "EPHEMERIS_TYPE": 0, "CLASSIFICATION_TYPE": "U", "NORAD_CAT_ID": 40105, "ELEMENT_SET_NO": 999, "REV_AT_EPOCH": 8244, "BSTAR": 0, "MEAN_MOTION_DOT": -3.8e-07, "MEAN_MOTION_DDOT": 0}, "tle": {"line1": "1 40105U 14045A   25352.06552829 -.00000038  00000+0  00000+0 0  9998", "line2": "2 40105  55.2322  95.6864 0032549 120.0469 240.2601  2.00572958 82445"}}, "geometry": {"type": "Point", "coordinates": [-80.09693455476972, -6.2331495867216]}}, {"type": "Feature", "properties": {"norad_id": 40294, "name": "GPS BIIF-8  (PRN 03)", "group": "gps-ops", "lat": -56.512559347835904, "lon": -42.83446726621056, "alt_km": 20333.212885287045, "timestamp": "2025-12-21T07:34:34.777168+00:00", "meta": {"OBJECT_NAME": "GPS BIIF-8  (PRN 03)", "OBJECT_ID": "2014-068A", "EPOCH": "2025-12-20T10:28:39.196128", "MEAN_MOTION": 2.00565411, "ECCENTRICITY": 0.0060813, "INCLINATION": 56.8634, "RA_OF_ASC_NODE": 37.8483, "ARG_OF_PERICENTER": 69.0316, "MEAN_ANOMALY": 291.6877, "EPHEMERIS_TYPE": 0, "CLASSIFICATION_TYPE": "U", "NORAD_CAT_ID": 40294, "ELEMENT_SET_NO": 999, "REV_AT_EPOCH": 8162, "BSTAR": 0, "MEAN_MOTION_DOT": -5.6e-07, "MEAN_MOTION_DDOT": 0}, "tle": {"line1": "1 40294U 14068A   25354.43656477 -.00000056  00000+0  00000+0 0  9999", "line2": "2 40294  56.8634  37.8483 0060813  69.0316 291.6877  2.00565411 81620"}}, "geometry": {"type": "Point", "coordinates": [-42.83446726621056, -56.512559347835904]}}]}